CTC2_L_00075016-03
1 11841U 24360BQ  26037.47790509  .00000000  00000+0  00000-0 0  9998
2 11841  65.0000 180.0000 0000000   0.0000   0.0000 15.28598690    11
CTC2_L_00075016-04
1 11842U 25557XX  26037.47790509  .00000000  00000+0  00000-0 0  9998
2 11842  65.0000 180.0000 0000000   0.0000  90.0000 15.28598690    11
CTC2_L_00075017-01
1 11843U 26905PT  26037.47790509  .00000000  00000+0  00000-0 0  9997
2 11843  65.0000 192.0000 0000000   0.0000 192.0000 15.28598690    18
CTC2_L_00075017-02
1 11844U 24552RY  26037.47790509  .00000000  00000+0  00000-0 0  9994
2 11844  65.0000 192.0000 0000000   0.0000 282.0000 15.28598690    19
CTC2_L_00075017-03
1 11845U 24412D   26037.47790509  .00000000  00000+0  00000-0 0  9990
2 11845  65.0000 192.0000 0000000   0.0000  12.0000 15.28598690    11
CTC2_L_00075017-04
1 11846U 26336TN  26037.47790509  .00000000  00000+0  00000-0 0  9998
2 11846  65.0000 192.0000 0000000   0.0000 102.0000 15.28598690    12
CTC2_L_00075018-01
1 11847U 24462XQ  26037.47790509  .00000000  00000+0  00000-0 0  9997
2 11847  65.0000 204.0000 0000000   0.0000 204.0000 15.28598690    10
CTC2_L_00075018-02
1 11848U 25226SG  26037.47790509  .00000000  00000+0  00000-0 0  9997
2 11848  65.0000 204.0000 0000000   0.0000 294.0000 15.28598690    10
CTC2_L_00075018-03
1 11849U 26225VT  26037.47790509  .00000000  00000+0  00000-0 0  9998
2 11849  65.0000 204.0000 0000000   0.0000  24.0000 15.28598690    12
CTC2_L_00075018-04
1 11850U 25256HP  26037.47790509  .00000000  00000+0  00000-0 0  9993
2 11850  65.0000 204.0000 0000000   0.0000 114.0000 15.28598690    14
CTC2_L_00075019-01
1 11851U 25102JL  26037.47790509  .00000000  00000+0  00000-0 0  9994
2 11851  65.0000 216.0000 0000000   0.0000 216.0000 15.28598690    11
CTC2_L_00075019-02
1 11852U 26062FI  26037.47790509  .00000000  00000+0  00000-0 0  9991
2 11852  65.0000 216.0000 0000000   0.0000 306.0000 15.28598690    12
CTC2_L_00075019-03
1 11853U 22407MU  26037.47790509  .00000000  00000+0  00000-0 0  9991
2 11853  65.0000 216.0000 0000000   0.0000  36.0000 15.28598690    13
CTC2_L_00075019-04
1 11854U 22256TU  26037.47790509  .00000000  00000+0  00000-0 0  9994
2 11854  65.0000 216.0000 0000000   0.0000 126.0000 15.28598690    14
CTC2_L_00075020-01
1 11855U 25136PQ  26037.47790509  .00000000  00000+0  00000-0 0  9995
2 11855  65.0000 228.0000 0000000   0.0000 228.0000 15.28598690    11
CTC2_L_00075020-02
1 11856U 24534SK  26037.47790509  .00000000  00000+0  00000-0 0  9997
2 11856  65.0000 228.0000 0000000   0.0000 318.0000 15.28598690    12
CTC2_L_00075020-03
1 11857U 25423RA  26037.47790509  .00000000  00000+0  00000-0 0  9996
2 11857  65.0000 228.0000 0000000   0.0000  48.0000 15.28598690    13
CTC2_L_00075020-04
1 11858U 26867FF  26037.47790509  .00000000  00000+0  00000-0 0  9990
2 11858  65.0000 228.0000 0000000   0.0000 138.0000 15.28598690    14
CTC2_L_00075021-01
1 11859U 23915MZ  26037.47790509  .00000000  00000+0  00000-0 0  9992
2 11859  65.0000 240.0000 0000000   0.0000 240.0000 15.28598690    13
CTC2_L_00075021-02
1 11860U 23808WT  26037.47790509  .00000000  00000+0  00000-0 0  9995
2 11860  65.0000 240.0000 0000000   0.0000 330.0000 15.28598690    15
CTC2_L_00075021-03
1 11861U 26861NZ  26037.47790509  .00000000  00000+0  00000-0 0  9998
2 11861  65.0000 240.0000 0000000   0.0000  60.0000 15.28598690    16
CTC2_L_00075021-04
1 11862U 24484KG  26037.47790509  .00000000  00000+0  00000-0 0  9998
2 11862  65.0000 240.0000 0000000   0.0000 150.0000 15.28598690    17
CTC2_L_00075022-01
1 11863U 25072ZE  26037.47790509  .00000000  00000+0  00000-0 0  9993
2 11863  65.0000 252.0000 0000000   0.0000 252.0000 15.28598690    14
CTC2_L_00075022-02
1 11864U 25664UV  26037.47790509  .00000000  00000+0  00000-0 0  9991
2 11864  65.0000 252.0000 0000000   0.0000 342.0000 15.28598690    15
CTC2_L_00075022-03
1 11865U 23549RB  26037.47790509  .00000000  00000+0  00000-0 0  9992
2 11865  65.0000 252.0000 0000000   0.0000  72.0000 15.28598690    16
CTC2_L_00075022-04
1 11866U 22350MF  26037.47790509  .00000000  00000+0  00000-0 0  9992
2 11866  65.0000 252.0000 0000000   0.0000 162.0000 15.28598690    17
CTC2_L_00075023-01
1 11867U 22044AA  26037.47790509  .00000000  00000+0  00000-0 0  9993
2 11867  65.0000 264.0000 0000000   0.0000 264.0000 15.28598690    14
CTC2_L_00075023-02
1 11868U 23828RG  26037.47790509  .00000000  00000+0  00000-0 0  9995
2 11868  65.0000 264.0000 0000000   0.0000 354.0000 15.28598690    15
CTC2_L_00075023-03
1 11869U 24115QL  26037.47790509  .00000000  00000+0  00000-0 0  9996
2 11869  65.0000 264.0000 0000000   0.0000  84.0000 15.28598690    16
CTC2_L_00075023-04
1 11870U 22608CH  26037.47790509  .00000000  00000+0  00000-0 0  9993
2 11870  65.0000 264.0000 0000000   0.0000 174.0000 15.28598690    18
CTC2_L_00075024-01
1 11871U 26779AX  26037.47790509  .00000000  00000+0  00000-0 0  9997
2 11871  65.0000 276.0000 0000000   0.0000 276.0000 15.28598690    15
CTC2_L_00075024-02
1 11872U 25652PF  26037.47790509  .00000000  00000+0  00000-0 0  9997
2 11872  65.0000 276.0000 0000000   0.0000   6.0000 15.28598690    17
CTC2_L_00075024-03
1 11873U 25030MN  26037.47790509  .00000000  00000+0  00000-0 0  9998
2 11873  65.0000 276.0000 0000000   0.0000  96.0000 15.28598690    17
CTC2_L_00075024-04
1 11874U 26871FK  26037.47790509  .00000000  00000+0  00000-0 0  9993
2 11874  65.0000 276.0000 0000000   0.0000 186.0000 15.28598690    18
CTC2_L_00075025-01
1 11875U 25204HD  26037.47790509  .00000000  00000+0  00000-0 0  9993
2 11875  65.0000 288.0000 0000000   0.0000 288.0000 15.28598690    15
CTC2_L_00075025-02
1 11876U 25495NS  26037.47790509  .00000000  00000+0  00000-0 0  9996
2 11876  65.0000 288.0000 0000000   0.0000  18.0000 15.28598690    17
CTC2_L_00075025-03
1 11877U 24585TF  26037.47790509  .00000000  00000+0  00000-0 0  9996
2 11877  65.0000 288.0000 0000000   0.0000 108.0000 15.28598690    18
CTC2_L_00075025-04
1 11878U 22943TQ  26037.47790509  .00000000  00000+0  00000-0 0  9993
2 11878  65.0000 288.0000 0000000   0.0000 198.0000 15.28598690    18
CTC2_L_00075026-01
1 11879U 23421MH  26037.47790509  .00000000  00000+0  00000-0 0  9996
2 11879  65.0000 300.0000 0000000   0.0000 300.0000 15.28598690    19
CTC2_L_00075026-02
1 11880U 22133FW  26037.47790509  .00000000  00000+0  00000-0 0  9997
2 11880  65.0000 300.0000 0000000   0.0000  30.0000 15.28598690    11
CTC2_L_00075026-03
1 11881U 24368NS  26037.47790509  .00000000  00000+0  00000-0 0  9990
2 11881  65.0000 300.0000 0000000   0.0000 120.0000 15.28598690    12
CTC2_L_00075026-04
1 11882U 25094ZB  26037.47790509  .00000000  00000+0  00000-0 0  9998
2 11882  65.0000 300.0000 0000000   0.0000 210.0000 15.28598690    13
CTC2_L_00075027-01
1 11883U 26607XW  26037.47790509  .00000000  00000+0  00000-0 0  9990
2 11883  65.0000 312.0000 0000000   0.0000 312.0000 15.28598690    10
CTC2_L_00075027-02
1 11884U 25364X   26037.47790509  .00000000  00000+0  00000-0 0  9990
2 11884  65.0000 312.0000 0000000   0.0000  42.0000 15.28598690    11
CTC2_L_00075027-03
1 11885U 24466JV  26037.47790509  .00000000  00000+0  00000-0 0  9993
2 11885  65.0000 312.0000 0000000   0.0000 132.0000 15.28598690    12
CTC2_L_00075027-04
1 11886U 24198US  26037.47790509  .00000000  00000+0  00000-0 0  9996
2 11886  65.0000 312.0000 0000000   0.0000 222.0000 15.28598690    13
CTC2_L_00075028-01
1 11887U 26333WC  26037.47790509  .00000000  00000+0  00000-0 0  9990
2 11887  65.0000 324.0000 0000000   0.0000 324.0000 15.28598690    10
CTC2_L_00075028-02
1 11888U 23124MF  26037.47790509  .00000000  00000+0  00000-0 0  9996
2 11888  65.0000 324.0000 0000000   0.0000  54.0000 15.28598690    11
CTC2_L_00075028-03
1 11889U 24256DJ  26037.47790509  .00000000  00000+0  00000-0 0  9994
2 11889  65.0000 324.0000 0000000   0.0000 144.0000 15.28598690    12
CTC2_L_00075028-04
1 11890U 22592P   26037.47790509  .00000000  00000+0  00000-0 0  9997
2 11890  65.0000 324.0000 0000000   0.0000 234.0000 15.28598690    14
CTC2_L_00075029-01
1 11891U 25565WT  26037.47790509  .00000000  00000+0  00000-0 0  9991
2 11891  65.0000 336.0000 0000000   0.0000 336.0000 15.28598690    11
CTC2_L_00075029-02
1 11892U 24644SV  26037.47790509  .00000000  00000+0  00000-0 0  9999
2 11892  65.0000 336.0000 0000000   0.0000  66.0000 15.28598690    12
CTC2_L_00075029-03
1 11893U 25195EZ  26037.47790509  .00000000  00000+0  00000-0 0  9992
2 11893  65.0000 336.0000 0000000   0.0000 156.0000 15.28598690    13
CTC2_L_00075029-04
1 11894U 22043XT  26037.47790509  .00000000  00000+0  00000-0 0  9992
2 11894  65.0000 336.0000 0000000   0.0000 246.0000 15.28598690    14
CTC2_L_00075030-01
1 11895U 22962LZ  26037.47790509  .00000000  00000+0  00000-0 0  9993
2 11895  65.0000 348.0000 0000000   0.0000 348.0000 15.28598690    11
CTC2_L_00075030-02
1 11896U 23561XA  26037.47790509  .00000000  00000+0  00000-0 0  9990
2 11896  65.0000 348.0000 0000000   0.0000  78.0000 15.28598690    12
CTC2_L_00075030-03
1 11897U 26789FP  26037.47790509  .00000000  00000+0  00000-0 0  9996
2 11897  65.0000 348.0000 0000000   0.0000 168.0000 15.28598690    13
CTC2_L_00075030-04
1 11898U 22103JM  26037.47790509  .00000000  00000+0  00000-0 0  9993
2 11898  65.0000 348.0000 0000000   0.0000 258.0000 15.28598690    14
